[
  {
    "COMMENT": "GENERATED VIA SPACETRACK.ORG API",
    "ORIGINATOR": "18 SPCS",
    "NORAD_CAT_ID": "20436",
    "OBJECT_NAME": "SPOT 2",
    "OBJECT_TYPE": "PAYLOAD",
    "CLASSIFICATION_TYPE": "U",
    "INTLDES": "90005A",
    "EPOCH": "2023-08-10 10:41:40",
    "EPOCH_MICROSECONDS": "372224",
    "MEAN_MOTION": "14.682991",
    "ECCENTRICITY": "0.0142109",
    "INCLINATION": "98.6602",
    "RA_OF_ASC_NODE": "296.9226",
    "ARG_OF_PERICENTER": "114.3614",
    "MEAN_ANOMALY": "247.2499",
    "EPHEMERIS_TYPE": "0",
    "ELEMENT_SET_NO": "999",
    "REV_AT_EPOCH": "76215",
    "BSTAR": "0.00031731",
    "MEAN_MOTION_DOT": "0.00002072",
    "MEAN_MOTION_DDOT": "0",
    "FILE": "3976764",
    "TLE_LINE0": "0 SPOT 2",
    "TLE_LINE1": "1 20436U 90005A   23222.44560616  .00002072  00000-0  31731-3 0  9991",
    "TLE_LINE2": "2 20436  98.6602 296.9226 0142109 114.3614 247.2499 14.68299100762159",
    "OBJECT_ID": "1990-005A",
    "OBJECT_NUMBER": "20436",
    "SEMIMAJOR_AXIS": "7044.640",
    "PERIOD": "98.073",
    "APOGEE": "766.616",
    "PERIGEE": "566.395",
    "DECAYED": "0"
  },
  {
    "COMMENT": "GENERATED VIA SPACETRACK.ORG API",
    "ORIGINATOR": "18 SPCS",
    "NORAD_CAT_ID": "20436",
    "OBJECT_NAME": "SPOT 2",
    "OBJECT_TYPE": "PAYLOAD",
    "CLASSIFICATION_TYPE": "U",
    "INTLDES": "90005A",
    "EPOCH": "2023-08-11 11:13:38",
    "EPOCH_MICROSECONDS": "321760",
    "MEAN_MOTION": "14.6830319",
    "ECCENTRICITY": "0.014211",
    "INCLINATION": "98.6604",
    "RA_OF_ASC_NODE": "298.0046",
    "ARG_OF_PERICENTER": "111.1998",
    "MEAN_ANOMALY": "250.4455",
    "EPHEMERIS_TYPE": "0",
    "ELEMENT_SET_NO": "999",
    "REV_AT_EPOCH": "76230",
    "BSTAR": "0.00030164",
    "MEAN_MOTION_DOT": "0.00001967",
    "MEAN_MOTION_DDOT": "0",
    "FILE": "3977627",
    "TLE_LINE0": "0 SPOT 2",
    "TLE_LINE1": "1 20436U 90005A   23223.46780465  .00001967  00000-0  30164-3 0  9991",
    "TLE_LINE2": "2 20436  98.6604 298.0046 0142110 111.1998 250.4455 14.68303190762306",
    "OBJECT_ID": "1990-005A",
    "OBJECT_NUMBER": "20436",
    "SEMIMAJOR_AXIS": "7044.627",
    "PERIOD": "98.072",
    "APOGEE": "766.603",
    "PERIGEE": "566.381",
    "DECAYED": "0"
  },
  {
    "COMMENT": "GENERATED VIA SPACETRACK.ORG API",
    "ORIGINATOR": "18 SPCS",
    "NORAD_CAT_ID": "20436",
    "OBJECT_NAME": "SPOT 2",
    "OBJECT_TYPE": "PAYLOAD",
    "CLASSIFICATION_TYPE": "U",
    "INTLDES": "90005A",
    "EPOCH": "2023-08-12 18:18:07",
    "EPOCH_MICROSECONDS": "216992",
    "MEAN_MOTION": "14.68308924",
    "ECCENTRICITY": "0.0142099",
    "INCLINATION": "98.6604",
    "RA_OF_ASC_NODE": "299.3748",
    "ARG_OF_PERICENTER": "107.1985",
    "MEAN_ANOMALY": "254.483",
    "EPHEMERIS_TYPE": "0",
    "ELEMENT_SET_NO": "999",
    "REV_AT_EPOCH": "76249",
    "BSTAR": "0.0003043",
    "MEAN_MOTION_DOT": "0.00001985",
    "MEAN_MOTION_DDOT": "0",
    "FILE": "3978759",
    "TLE_LINE0": "0 SPOT 2",
    "TLE_LINE1": "1 20436U 90005A   23224.76258353  .00001985  00000-0  30430-3 0  9997",
    "TLE_LINE2": "2 20436  98.6604 299.3748 0142099 107.1985 254.4830 14.68308924762497",
    "OBJECT_ID": "1990-005A",
    "OBJECT_NUMBER": "20436",
    "SEMIMAJOR_AXIS": "7044.609",
    "PERIOD": "98.072",
    "APOGEE": "766.577",
    "PERIGEE": "566.371",
    "DECAYED": "0"
  },
  {
    "COMMENT": "GENERATED VIA SPACETRACK.ORG API",
    "ORIGINATOR": "18 SPCS",
    "NORAD_CAT_ID": "20436",
    "OBJECT_NAME": "SPOT 2",
    "OBJECT_TYPE": "PAYLOAD",
    "CLASSIFICATION_TYPE": "U",
    "INTLDES": "90005A",
    "EPOCH": "2023-08-13 18:50:04",
    "EPOCH_MICROSECONDS": "403616",
    "MEAN_MOTION": "14.68313098",
    "ECCENTRICITY": "0.0142092",
    "INCLINATION": "98.6605",
    "RA_OF_ASC_NODE": "300.4567",
    "ARG_OF_PERICENTER": "104.0314",
    "MEAN_ANOMALY": "257.6733",
    "EPHEMERIS_TYPE": "0",
    "ELEMENT_SET_NO": "999",
    "REV_AT_EPOCH": "76264",
    "BSTAR": "0.00030212",
    "MEAN_MOTION_DOT": "0.0000197",
    "MEAN_MOTION_DDOT": "0",
    "FILE": "3979564",
    "TLE_LINE0": "0 SPOT 2",
    "TLE_LINE1": "1 20436U 90005A   23225.78477319  .00001970  00000-0  30212-3 0  9997",
    "TLE_LINE2": "2 20436  98.6605 300.4567 0142092 104.0314 257.6733 14.68313098762648",
    "OBJECT_ID": "1990-005A",
    "OBJECT_NUMBER": "20436",
    "SEMIMAJOR_AXIS": "7044.595",
    "PERIOD": "98.072",
    "APOGEE": "766.559",
    "PERIGEE": "566.362",
    "DECAYED": "0"
  },
  {
    "COMMENT": "GENERATED VIA SPACETRACK.ORG API",
    "ORIGINATOR": "18 SPCS",
    "NORAD_CAT_ID": "20436",
    "OBJECT_NAME": "SPOT 2",
    "OBJECT_TYPE": "PAYLOAD",
    "CLASSIFICATION_TYPE": "U",
    "INTLDES": "90005A",
    "EPOCH": "2023-08-14 19:22:01",
    "EPOCH_MICROSECONDS": "248096",
    "MEAN_MOTION": "14.68317441",
    "ECCENTRICITY": "0.0142062",
    "INCLINATION": "98.6604",
    "RA_OF_ASC_NODE": "301.5386",
    "ARG_OF_PERICENTER": "100.8735",
    "MEAN_ANOMALY": "260.8492",
    "EPHEMERIS_TYPE": "0",
    "ELEMENT_SET_NO": "999",
    "REV_AT_EPOCH": "76279",
    "BSTAR": "0.00030796",
    "MEAN_MOTION_DOT": "0.0000201",
    "MEAN_MOTION_DDOT": "0",
    "FILE": "3980388",
    "TLE_LINE0": "0 SPOT 2",
    "TLE_LINE1": "1 20436U 90005A   23226.80695889  .00002010  00000-0  30796-3 0  9998",
    "TLE_LINE2": "2 20436  98.6604 301.5386 0142062 100.8735 260.8492 14.68317441762796",
    "OBJECT_ID": "1990-005A",
    "OBJECT_NUMBER": "20436",
    "SEMIMAJOR_AXIS": "7044.582",
    "PERIOD": "98.071",
    "APOGEE": "766.523",
    "PERIGEE": "566.370",
    "DECAYED": "0"
  },
  {
    "COMMENT": "GENERATED VIA SPACETRACK.ORG API",
    "ORIGINATOR": "18 SPCS",
    "NORAD_CAT_ID": "20436",
    "OBJECT_NAME": "SPOT 2",
    "OBJECT_TYPE": "PAYLOAD",
    "CLASSIFICATION_TYPE": "U",
    "INTLDES": "90005A",
    "EPOCH": "2023-08-16 04:04:36",
    "EPOCH_MICROSECONDS": "536448",
    "MEAN_MOTION": "14.68323049",
    "ECCENTRICITY": "0.014207",
    "INCLINATION": "98.6602",
    "RA_OF_ASC_NODE": "302.9811",
    "ARG_OF_PERICENTER": "96.6508",
    "MEAN_ANOMALY": "265.0888",
    "EPHEMERIS_TYPE": "0",
    "ELEMENT_SET_NO": "999",
    "REV_AT_EPOCH": "76299",
    "BSTAR": "0.00030739",
    "MEAN_MOTION_DOT": "0.00002006",
    "MEAN_MOTION_DDOT": "0",
    "FILE": "3981509",
    "TLE_LINE0": "0 SPOT 2",
    "TLE_LINE1": "1 20436U 90005A   23228.16986732  .00002006  00000-0  30739-3 0  9991",
    "TLE_LINE2": "2 20436  98.6602 302.9811 0142070  96.6508 265.0888 14.68323049762990",
    "OBJECT_ID": "1990-005A",
    "OBJECT_NUMBER": "20436",
    "SEMIMAJOR_AXIS": "7044.564",
    "PERIOD": "98.071",
    "APOGEE": "766.511",
    "PERIGEE": "566.347",
    "DECAYED": "0"
  },
  {
    "COMMENT": "GENERATED VIA SPACETRACK.ORG API",
    "ORIGINATOR": "18 SPCS",
    "NORAD_CAT_ID": "20436",
    "OBJECT_NAME": "SPOT 2",
    "OBJECT_TYPE": "PAYLOAD",
    "CLASSIFICATION_TYPE": "U",
    "INTLDES": "90005A",
    "EPOCH": "2023-08-17 07:52:48",
    "EPOCH_MICROSECONDS": "23904",
    "MEAN_MOTION": "14.68328455",
    "ECCENTRICITY": "0.014204",
    "INCLINATION": "98.6599",
    "RA_OF_ASC_NODE": "304.2074",
    "ARG_OF_PERICENTER": "93.058",
    "MEAN_ANOMALY": "268.6887",
    "EPHEMERIS_TYPE": "0",
    "ELEMENT_SET_NO": "999",
    "REV_AT_EPOCH": "76316",
    "BSTAR": "0.00033167",
    "MEAN_MOTION_DOT": "0.0000217",
    "MEAN_MOTION_DDOT": "0",
    "FILE": "3982667",
    "TLE_LINE0": "0 SPOT 2",
    "TLE_LINE1": "1 20436U 90005A   23229.32833361  .00002170  00000-0  33167-3 0  9999",
    "TLE_LINE2": "2 20436  98.6599 304.2074 0142040  93.0580 268.6887 14.68328455763163",
    "OBJECT_ID": "1990-005A",
    "OBJECT_NUMBER": "20436",
    "SEMIMAJOR_AXIS": "7044.546",
    "PERIOD": "98.071",
    "APOGEE": "766.472",
    "PERIGEE": "566.351",
    "DECAYED": "0"
  },
  {
    "COMMENT": "GENERATED VIA SPACETRACK.ORG API",
    "ORIGINATOR": "18 SPCS",
    "NORAD_CAT_ID": "20436",
    "OBJECT_NAME": "SPOT 2",
    "OBJECT_TYPE": "PAYLOAD",
    "CLASSIFICATION_TYPE": "U",
    "INTLDES": "90005A",
    "EPOCH": "2023-08-18 18:13:29",
    "EPOCH_MICROSECONDS": "850528",
    "MEAN_MOTION": "14.68334243",
    "ECCENTRICITY": "0.0142035",
    "INCLINATION": "98.6595",
    "RA_OF_ASC_NODE": "305.7221",
    "ARG_OF_PERICENTER": "88.6301",
    "MEAN_ANOMALY": "273.1168",
    "EPHEMERIS_TYPE": "0",
    "ELEMENT_SET_NO": "999",
    "REV_AT_EPOCH": "76337",
    "BSTAR": "0.00030799",
    "MEAN_MOTION_DOT": "0.00002011",
    "MEAN_MOTION_DDOT": "0",
    "FILE": "3983844",
    "TLE_LINE0": "0 SPOT 2",
    "TLE_LINE1": "1 20436U 90005A   23230.75937327  .00002011  00000-0  30799-3 0  9997",
    "TLE_LINE2": "2 20436  98.6595 305.7221 0142035  88.6301 273.1168 14.68334243763372",
    "OBJECT_ID": "1990-005A",
    "OBJECT_NUMBER": "20436",
    "SEMIMAJOR_AXIS": "7044.528",
    "PERIOD": "98.070",
    "APOGEE": "766.450",
    "PERIGEE": "566.336",
    "DECAYED": "0"
  },
  {
    "COMMENT": "GENERATED VIA SPACETRACK.ORG API",
    "ORIGINATOR": "18 SPCS",
    "NORAD_CAT_ID": "20436",
    "OBJECT_NAME": "SPOT 2",
    "OBJECT_TYPE": "PAYLOAD",
    "CLASSIFICATION_TYPE": "U",
    "INTLDES": "90005A",
    "EPOCH": "2023-08-19 18:45:25",
    "EPOCH_MICROSECONDS": "55136",
    "MEAN_MOTION": "14.68338091",
    "ECCENTRICITY": "0.0141995",
    "INCLINATION": "98.6593",
    "RA_OF_ASC_NODE": "306.804",
    "ARG_OF_PERICENTER": "85.4708",
    "MEAN_ANOMALY": "276.27",
    "EPHEMERIS_TYPE": "0",
    "ELEMENT_SET_NO": "999",
    "REV_AT_EPOCH": "76352",
    "BSTAR": "0.00029248",
    "MEAN_MOTION_DOT": "0.00001906",
    "MEAN_MOTION_DDOT": "0",
    "FILE": "3984772",
    "TLE_LINE0": "0 SPOT 2",
    "TLE_LINE1": "1 20436U 90005A   23231.78153999  .00001906  00000-0  29248-3 0  9995",
    "TLE_LINE2": "2 20436  98.6593 306.8040 0141995  85.4708 276.2700 14.68338091763529",
    "OBJECT_ID": "1990-005A",
    "OBJECT_NUMBER": "20436",
    "SEMIMAJOR_AXIS": "7044.516",
    "PERIOD": "98.070",
    "APOGEE": "766.409",
    "PERIGEE": "566.352",
    "DECAYED": "0"
  }
]